NORAD_CAT_ID,OBJECT_NAME,OBJECT_TYPE,EPOCH,MEAN_MOTION,ECCENTRICITY,INCLINATION,RA_OF_ASC_NODE,ARG_OF_PERICENTER,MEAN_ANOMALY,BSTAR,MEAN_MOTION_DOT,MEAN_MOTION_DDOT,TLE_LINE0,TLE_LINE1,TLE_LINE2,SEMIMAJOR_AXIS,PERIOD,APOGEE,PERIGEE,DECAYED
228,DELTA 1 DEB (YO),DEBRIS,2022-06-16 00:05:29,15.03012968,0.0015025,48.4265,155.6125,303.1804,56.7679,0.0002829,3.602e-05,0.0,0 DELTA 1 DEB (YO),1 00228U 62002C   22167.00381076  .00003602  00000-0  28290-3 0  9990,2 00228  48.4265 155.6125 0015025 303.1804  56.7679 15.03012968220728,6935.749,95.80799999999999,568.035,547.193,0.0
228,DELTA 1 DEB (YO),DEBRIS,2022-06-19 03:04:43,15.03032522,0.0014923,48.4268,140.2052,316.4789,43.4957,0.00026389,3.344e-05,0.0,0 DELTA 1 DEB (YO),1 00228U 62002C   22170.12827633  .00003344  00000-0  26389-3 0  9991,2 00228  48.4268 140.2052 0014923 316.4789  43.4957 15.03032522221197,6935.689,95.806,567.904,547.2040000000002,0.0
228,DELTA 1 DEB (YO),DEBRIS,2022-06-20 04:36:21,15.03038658,0.0014873,48.4268,134.9601,321.1219,38.8635,0.00022348,2.791e-05,0.0,0 DELTA 1 DEB (YO),1   228U 62002C   22171.19191448  .00002791  00000-0  22348-3 0  9993,2   228  48.4268 134.9601 0014873 321.1219  38.8635 15.03038658245487,6935.67,95.806,567.85,547.219,0.0
228,DELTA 1 DEB (YO),DEBRIS,2022-06-21 14:06:37,15.03048041,0.0014795,48.4269,128.0757,327.1793,32.8211,0.00021329,2.652e-05,0.0,0 DELTA 1 DEB (YO),1 00228U 62002C   22172.58793140  .00002652  00000-0  21329-3 0  9998,2 00228  48.4269 128.0757 0014795 327.1793  32.8211 15.03048041221564,6935.641,95.805,567.7669999999998,547.245,0.0
228,DELTA 1 DEB (YO),DEBRIS,2022-06-22 01:16:42,15.03050903,0.0014753,48.427,125.7808,329.23699999999997,30.7689,0.00021815,2.719e-05,0.0,0 DELTA 1 DEB (YO),1 00228U 62002C   22173.05326889  .00002719  00000-0  21815-3 0  9997,2 00228  48.4270 125.7808 0014753 329.2370  30.7689 15.03050903221639,6935.632,95.805,567.729,547.265,0.0
228,DELTA 1 DEB (YO),DEBRIS,2022-06-22 20:25:25,15.03056678,0.0014723,48.4274,121.8468,332.6573,27.3575,0.00023741,2.983e-05,0.0,0 DELTA 1 DEB (YO),1 00228U 62002C   22173.85098778  .00002983  00000-0  23741-3 0  9991,2 00228  48.4274 121.8468 0014723 332.6573  27.3575 15.03056678221756,6935.614000000001,95.805,567.691,547.268,0.0
228,DELTA 1 DEB (YO),DEBRIS,2022-06-23 02:48:19,15.03058175,0.0014702,48.4274,120.5356,333.8094,26.2085,0.00023394,2.935e-05,0.0,0 DELTA 1 DEB (YO),1   228U 62002C   22174.11689355  .00002935  00000-0  23394-3 0  9999,2   228  48.4274 120.5356 0014702 333.8094  26.2085 15.03058175245929,6935.61,95.805,567.6709999999998,547.278,0.0
228,DELTA 1 DEB (YO),DEBRIS,2022-06-23 20:21:18,15.03061346,0.0014667,48.4275,116.9294,337.0093,23.0173,0.00020307,2.513e-05,0.0,0 DELTA 1 DEB (YO),1 00228U 62002C   22174.84813309  .00002513  00000-0  20307-3 0  9990,2 00228  48.4275 116.9294 0014667 337.0093  23.0173 15.03061346221904,6935.6,95.804,567.637,547.293,0.0
228,DELTA 1 DEB (YO),DEBRIS,2022-06-24 01:08:29,15.03062463,0.0014654000000000002,48.4275,115.946,337.9054,22.1237,0.00019999,2.471e-05,0.0,0 DELTA 1 DEB (YO),1 00228U 62002C   22175.04756166  .00002471  00000-0  19999-3 0  9998,2 00228  48.4275 115.9460 0014654 337.9054  22.1237 15.03062463221935,6935.597,95.804,567.625,547.298,0.0
228,DELTA 1 DEB (YO),DEBRIS,2022-06-24 20:17:11,15.03066453,0.0014615000000000001,48.4276,112.012,341.4223,18.6166,0.00018254,2.232e-05,0.0,0 DELTA 1 DEB (YO),1 00228U 62002C   22175.84527477  .00002232  00000-0  18254-3 0  9995,2 00228  48.4276 112.0120 0014615 341.4223  18.6166 15.03066453222050,6935.584,95.804,567.586,547.313,0.0
228,DELTA 1 DEB (YO),DEBRIS,2022-06-25 02:40:05,15.03067769,0.0014599,48.4276,110.7007,342.59,17.4522,0.00017859,2.178e-05,0.0,0 DELTA 1 DEB (YO),1   228U 62002C   22176.11117870  .00002178  00000-0  17859-3 0  9997,2   228  48.4276 110.7007 0014599 342.5900  17.4522 15.03067769246223,6935.58,95.804,567.57,547.32,0.0
228,DELTA 1 DEB (YO),DEBRIS,2022-06-25 20:13:04,15.03072328,0.0014557,48.4278,107.0946,345.7906,14.2607,0.00018417,2.254e-05,0.0,0 DELTA 1 DEB (YO),1 00228U 62002C   22176.84241280  .00002254  00000-0  18417-3 0  9996,2 00228  48.4278 107.0946 0014557 345.7906  14.2607 15.03072328222209,6935.566,95.804,567.5269999999998,547.335,0.0
228,DELTA 1 DEB (YO),DEBRIS,2022-06-26 12:10:19,15.03076024,0.0014519000000000001,48.428000000000004,103.8164,348.7355,11.3242,0.00018438,2.258e-05,0.0,0 DELTA 1 DEB (YO),1 00228U 62002C   22177.50716959  .00002258  00000-0  18438-3 0  9997,2 00228  48.4280 103.8164 0014519 348.7355  11.3242 15.03076024222308,6935.555,95.804,567.49,547.35,0.0
228,DELTA 1 DEB (YO),DEBRIS,2022-06-26 20:08:56,15.03078235,0.0014493,48.4281,102.1772,350.1839,9.8801,0.00019262,2.371e-05,0.0,0 DELTA 1 DEB (YO),1 00228U 62002C   22177.83954721  .00002371  00000-0  19262-3 0  9996,2 00228  48.4281 102.1772 0014493 350.1839   9.8801 15.03078235222355,6935.5480000000025,95.803,567.465,547.361,0.0
228,DELTA 1 DEB (YO),DEBRIS,2022-06-27 00:56:07,15.03079124,0.0014487,48.4281,101.1939,351.0376,9.0288,0.00019083,2.346e-05,0.0,0 DELTA 1 DEB (YO),1 00228U 62002C   22178.03897384  .00002346  00000-0  19083-3 0  9993,2 00228  48.4281 101.1939 0014487 351.0376   9.0288 15.03079124222380,6935.545,95.803,567.4580000000002,547.363,0.0
228,DELTA 1 DEB (YO),DEBRIS,2022-06-27 20:04:49,15.03081845,0.0014424000000000001,48.4282,97.2601,354.6674,5.4094,0.00016278,1.962e-05,0.0,0 DELTA 1 DEB (YO),1 00228U 62002C   22178.83667907  .00001962  00000-0  16278-3 0  9993,2 00228  48.4282  97.2601 0014424 354.6674   5.4094 15.03081845222505,6935.5369999999975,95.803,567.406,547.398,0.0
228,DELTA 1 DEB (YO),DEBRIS,2022-06-28 00:51:59,15.03082643,0.0014411,48.4283,96.2767,355.5384,4.541,0.00015984,1.922e-05,0.0,0 DELTA 1 DEB (YO),1   228U 62002C   22179.03610506  .00001922  00000-0  15984-3 0  9998,2   228  48.4283  96.2767 0014411 355.5384   4.5410 15.03082643246664,6935.534000000002,95.803,567.394,547.405,0.0
228,DELTA 1 DEB (YO),DEBRIS,2022-06-28 23:12:07,15.03086456,0.0014363,48.4284,91.6872,359.6451,0.4461,0.00014405,1.705e-05,0.0,0 DELTA 1 DEB (YO),1 00228U 62002C   22179.96675792  .00001705  00000-0  14405-3 0  9994,2 00228  48.4284  91.6872 0014363 359.6451   0.4461 15.03086456222679,6935.523,95.803,567.349,547.4259999999998,0.0
228,DELTA 1 DEB (YO),DEBRIS,2022-06-29 18:20:49,15.03089058,0.0014320000000000001,48.4285,87.7534,3.2815,356.8201,0.00012182,1.401e-05,0.0,0 DELTA 1 DEB (YO),1 00228U 62002C   22180.76445881  .00001401  00000-0  12182-3 0  9991,2 00228  48.4285  87.7534 0014320   3.2815 356.8201 15.03089058222794,6935.515,95.803,567.311,547.448,0.0
228,DELTA 1 DEB (YO),DEBRIS,2022-06-30 00:43:43,15.03089907,0.0014309000000000001,48.4286,86.4422,4.4476,355.6573,0.00011764,1.344e-05,0.0,0 DELTA 1 DEB (YO),1 00228U 62002C   22181.03035888  .00001344  00000-0  11764-3 0  9995,2 00228  48.4286  86.4422 0014309   4.4476 355.6573 15.03089907222837,6935.512,95.803,567.3009999999998,547.453,0.0
228,DELTA 1 DEB (YO),DEBRIS,2022-06-30 18:16:40,15.03091779,0.0014273,48.4286,82.836,7.7426,352.3716,9.644700000000001e-05,1.053e-05,0.0,0 DELTA 1 DEB (YO),1 00228U 62002C   22181.76158317  .00001053  00000-0  96447-4 0  9997,2 00228  48.4286  82.8360 0014273   7.7426 352.3716 15.03091779222944,6935.5059999999985,95.803,567.27,547.472,0.0
228,DELTA 1 DEB (YO),DEBRIS,2022-06-30 23:03:51,15.03092337,0.0014257,48.4286,81.8526,8.6336,351.4831,9.459799999999999e-05,1.028e-05,0.0,0 DELTA 1 DEB (YO),1   228U 62002C   22181.96100787  .00001028  00000-0  94598-4 0  9994,2   228  48.4286  81.8526 0014257   8.6336 351.4831 15.03092337247103,6935.505,95.802,567.258,547.482,0.0
228,DELTA 1 DEB (YO),DEBRIS,2022-07-01 10:13:55,15.03093906,0.0014243,48.4287,79.5578,10.6716,349.4508,9.8038e-05,1.075e-05,0.0,0 DELTA 1 DEB (YO),1 00228U 62002C   22182.42633185  .00001075  00000-0  98038-4 0  9994,2 00228  48.4287  79.5578 0014243  10.6716 349.4508 15.03093906223043,6935.5,95.802,567.243,547.487,0.0
228,DELTA 1 DEB (YO),DEBRIS,2022-07-01 18:12:32,15.0309475,0.0014219,48.4286,77.9186,12.1355,347.9909,9.6003e-05,1.047e-05,0.0,0 DELTA 1 DEB (YO),1 00228U 62002C   22182.75870587  .00001047  00000-0  96003-4 0  9998,2 00228  48.4286  77.9186 0014219  12.1355 347.9909 15.03094750223099,6935.4969999999985,95.802,567.224,547.501,0.0
228,DELTA 1 DEB (YO),DEBRIS,2022-07-02 02:11:09,15.03096441,0.0014197,48.4286,76.2795,13.692,346.4387,0.0001125,1.273e-05,0.0,0 DELTA 1 DEB (YO),1   228U 62002C   22183.09107950  .00001273  00000-0  11250-3 0  9994,2   228  48.4286  76.2795 0014197  13.6920 346.4387 15.03096441247275,6935.4919999999975,95.802,567.203,547.511,0.0
228,DELTA 1 DEB (YO),DEBRIS,2022-07-02 18:08:23,15.0309911,0.0014152999999999998,48.4285,73.001,16.6932,343.4456,0.00012568,1.454e-05,0.0,0 DELTA 1 DEB (YO),1 00228U 62002C   22183.75582582  .00001454  00000-0  12568-3 0  9999,2 00228  48.4285  73.0010 0014153  16.6932 343.4456 15.03099110223248,6935.484,95.802,567.165,547.533,0.0
228,DELTA 1 DEB (YO),DEBRIS,2022-07-02 22:55:33,15.03099716,0.0014145,48.4285,72.0176,17.5883,342.5528,0.00012626,1.462e-05,0.0,0 DELTA 1 DEB (YO),1 00228U 62002C   22183.95524960  .00001462  00000-0  12626-3 0  9991,2 00228  48.4285  72.0176 0014145  17.5883 342.5528 15.03099716223271,6935.482,95.802,567.1569999999998,547.5369999999998,0.0
228,DELTA 1 DEB (YO),DEBRIS,2022-07-03 18:04:14,15.03102851,0.0014102000000000001,48.4285,68.0837,21.1703,338.9802,0.00013495,1.581e-05,0.0,0 DELTA 1 DEB (YO),1 00228U 62002C   22184.75294333  .00001581  00000-0  13495-3 0  9995,2 00228  48.4285  68.0837 0014102  21.1703 338.9802 15.03102851223397,6935.472,95.802,567.118,547.557,0.0
228,DELTA 1 DEB (YO),DEBRIS,2022-07-03 22:51:24,15.03103527,0.0014102000000000001,48.4285,67.1001,22.092,338.0609,0.00013437,1.573e-05,0.0,0 DELTA 1 DEB (YO),1 00228U 62002C   22184.95236655  .00001573  00000-0  13437-3 0  9997,2 00228  48.4285  67.1001 0014102  22.0920 338.0609 15.03103527223422,6935.47,95.802,567.116,547.555,0.0
